{
    "links": {
        "self": "http://www.neowsapp.com/rest/v1/neo/3785763?api_key=iIulBulltgU6a56xZRHN4H3l9WmuAYTsLGpBGhQ2"
    },
    "id": "3785763",
    "neo_reference_id": "3785763",
    "name": "(2017 TE4)",
    "designation": "2017 TE4",
    "nasa_jpl_url": "http://ssd.jpl.nasa.gov/sbdb.cgi?sstr=3785763",
    "absolute_magnitude_h": 27.3,
    "estimated_diameter": {
        "kilometers": {
            "estimated_diameter_min": 0.0092162655,
            "estimated_diameter_max": 0.0206081961
        },
        "meters": {
            "estimated_diameter_min": 9.216265485,
            "estimated_diameter_max": 20.6081961232
        },
        "miles": {
            "estimated_diameter_min": 0.0057267201,
            "estimated_diameter_max": 0.0128053354
        },
        "feet": {
            "estimated_diameter_min": 30.2370924539,
            "estimated_diameter_max": 67.6121941689
        }
    },
    "is_potentially_hazardous_asteroid": false,
    "close_approach_data": [
        {
            "close_approach_date": "2017-10-08",
            "close_approach_date_full": "2017-Oct-08 08:59",
            "epoch_date_close_approach": 1507453140000,
            "relative_velocity": {
                "kilometers_per_second": "6.2690565155",
                "kilometers_per_hour": "22568.603455756",
                "miles_per_hour": "14023.2525194946"
            },
            "miss_distance": {
                "astronomical": "0.0182176758",
                "lunar": "7.0866758862",
                "kilometers": "2725325.496030546",
                "miles": "1693438.7374356948"
            },
            "orbiting_body": "Earth"
        }
    ],
    "orbital_data": {
        "orbit_id": "2",
        "orbit_determination_date": "2017-10-26 06:19:24",
        "first_observation_date": "2017-10-11",
        "last_observation_date": "2017-10-25",
        "data_arc_in_days": 14,
        "observations_used": 29,
        "orbit_uncertainty": "8",
        "minimum_orbit_intersection": ".0147845",
        "jupiter_tisserand_invariant": "4.471",
        "epoch_osculation": "2458041.5",
        "eccentricity": ".3312086512713339",
        "semi_major_axis": "1.502735975560018",
        "inclination": "6.341033461124322",
        "ascending_node_longitude": "196.5390921992942",
        "orbital_period": "672.8565000435772",
        "perihelion_distance": "1.005016819877872",
        "perihelion_argument": "162.0961113942637",
        "aphelion_distance": "2.000455131242163",
        "perihelion_time": "2458020.702267198839",
        "mean_anomaly": "11.12746002741009",
        "mean_motion": ".5350323582765193",
        "equinox": "J2000",
        "orbit_class": {
            "orbit_class_type": "APO",
            "orbit_class_description": "Near-Earth asteroid orbits which cross the Earth’s orbit similar to that of 1862 Apollo",
            "orbit_class_range": "a (semi-major axis) > 1.0 AU; q (perihelion) < 1.017 AU"
        }
    },
    "is_sentry_object": false
}